2023-104A               
1 57424U 23104A   26065.78279804  .00015492  00000+0  48200-3 0  9993
2 57424  97.2792 135.5625 0009333 122.1915 238.0234 15.33350758146346
STARLINK-33742          
1 63366U 25063D   26068.37728166  .00037156  00000+0  12602-2 0  9996
2 63366  53.1595  53.7714 0001342  80.6769 279.4384 15.30203480 54661
