[{"OBJECT_NAME":"OBJECT A","OBJECT_ID":"2023-104A","EPOCH":"2026-03-06T18:47:13.750656","MEAN_MOTION":15.33350758,"ECCENTRICITY":0.00093331,"INCLINATION":97.2792,"RA_OF_ASC_NODE":135.5625,"ARG_OF_PERICENTER":122.1915,"MEAN_ANOMALY":238.0234,"EPHEMERIS_TYPE":0,"CLASSIFICATION_TYPE":"U","NORAD_CAT_ID":57424,"ELEMENT_SET_NO":999,"REV_AT_EPOCH":14634,"BSTAR":0.00048200218,"MEAN_MOTION_DOT":0.00015492,"MEAN_MOTION_DDOT":0},{"OBJECT_NAME":"STARLINK-33742","OBJECT_ID":"2025-063D","EPOCH":"2026-03-09T09:03:17.135424","MEAN_MOTION":15.3020348,"ECCENTRICITY":0.00013424,"INCLINATION":53.1595,"RA_OF_ASC_NODE":53.7714,"ARG_OF_PERICENTER":80.6769,"MEAN_ANOMALY":279.4384,"EPHEMERIS_TYPE":0,"CLASSIFICATION_TYPE":"U","NORAD_CAT_ID":63366,"ELEMENT_SET_NO":999,"REV_AT_EPOCH":5466,"BSTAR":0.0012602432,"MEAN_MOTION_DOT":0.00037156,"MEAN_MOTION_DDOT":0}]
